OBJECT_NAME,OBJECT_ID,EPOCH,MEAN_MOTION,ECCENTRICITY,INCLINATION,RA_OF_ASC_NODE,ARG_OF_PERICENTER,MEAN_ANOMALY,EPHEMERIS_TYPE,CLASSIFICATION_TYPE,NORAD_CAT_ID,ELEMENT_SET_NO,REV_AT_EPOCH,BSTAR,MEAN_MOTION_DOT,MEAN_MOTION_DDOT
KUIPER-00602,2026-118V,2026-06-06T14:00:04.000032,15.37882017,.0003204,51.8696,104.5069,108.8187,184.1819,0,U,69286,999,130,.18510033E-3,.6614E-4,0
KUIPER-00603,2026-118W,2026-06-06T14:00:04.000032,15.37330717,.00056454,51.8664,104.5443,123.6539,152.5807,0,U,69287,999,221,.19318529E-3,.6794E-4,0
KUIPER-00605,2026-118X,2026-06-06T14:00:04.000032,15.36848225,.00078172,51.8653,104.5720,127.4427,135.4099,0,U,69288,999,205,.13459865E-3,.4538E-4,0
KUIPER-00606,2026-118Y,2026-06-06T14:00:04.000032,15.37539407,.00048628,51.8689,104.5285,115.2807,167.4688,0,U,69289,999,190,.1743643E-3,.6136E-4,0
KUIPER-00607,2026-118Z,2026-06-06T14:00:04.000032,15.37217581,.00064995,51.8673,104.5480,121.1287,152.8338,0,U,69290,999,186,.18654185E-3,.6522E-4,0
KUIPER-00608,2026-118AA,2026-06-06T14:00:04.000032,15.36299829,.00099427,51.8592,104.6024,142.2603,106.1038,0,U,69291,999,183,-.33310675E-2,-.118477E-2,0
KUIPER-00610,2026-118AB,2026-06-06T14:00:04.000032,15.38081197,.00030422,51.8716,104.4929,100.4769,196.6753,0,U,69292,999,175,.24705256E-3,.9023E-4,0
KUIPER-00613,2026-118AC,2026-06-06T14:00:04.000032,15.35777597,.0010473,51.8618,104.6199,149.6557,89.9284,0,U,69293,999,130,-.13032739E-1,-.436567E-2,0
KUIPER-00618,2026-118AD,2026-06-06T14:00:04.000032,15.38480634,.00021957,51.8717,104.4697,64.7153,243.2937,0,U,69294,999,130,.2526841E-3,.9362E-4,0
KUIPER-00620,2026-118AE,2026-06-06T14:00:04.000032,15.38164710,.00030933,51.8712,104.4898,89.5076,210.0464,0,U,69295,999,229,.25071236E-3,.9188E-4,0
STARLINK-37501,2026-119A,2026-06-06T14:00:04.000032,15.85050601,.00014166,97.2831,182.8101,67.7277,343.2323,0,U,69296,999,218,-.70742919E-2,-.1437166E-1,0
STARLINK-37496,2026-119B,2026-06-06T14:00:04.000032,15.83873676,.0001216,97.2833,182.8107,53.6711,359.5362,0,U,69297,999,218,-.13263753E-1,-.2515852E-1,0
STARLINK-37519,2026-119C,2026-06-06T14:00:04.000032,15.85535140,.00012399,97.2832,182.8150,74.7978,347.4277,0,U,69298,999,218,-.12124264E-1,-.2495326E-1,0
STARLINK-37455,2026-119D,2026-06-06T14:00:04.000032,15.84073721,.00011294,97.2829,182.8125,70.7563,346.1462,0,U,69299,999,218,-.32908144E-2,-.679726E-2,0
STARLINK-37456,2026-119E,2026-06-06T14:00:04.000032,15.84516898,.00009396,97.2832,182.8157,86.9443,337.3600,0,U,69300,999,218,-.31596354E-2,-.667439E-2,0
STARLINK-37630,2026-119F,2026-06-06T14:00:04.000032,15.85738457,.00011779,97.2833,182.8175,90.7788,337.5126,0,U,69301,999,234,-.11081444E-1,-.227443E-1,0
STARLINK-37804,2026-119G,2026-06-06T14:00:04.000032,15.85329648,.00013571,97.2834,182.8186,63.3927,7.9471,0,U,69302,999,234,-.11414053E-1,-.2293111E-1,0
STARLINK-37730,2026-119H,2026-06-06T14:00:04.000032,15.86211152,.0001334,97.2834,182.8205,91.9269,343.3720,0,U,69303,999,234,-.79983418E-2,-.171538E-1,0
STARLINK-37731,2026-119J,2026-06-06T14:00:04.000032,15.85823786,.00016024,97.2834,182.8216,76.4473,2.6502,0,U,69304,999,234,-.11702094E-1,-.24506E-1,0
STARLINK-37734,2026-119K,2026-06-06T14:00:04.000032,15.86035161,.00013526,97.2837,182.8229,81.9834,359.5806,0,U,69305,999,234,-.74222576E-2,-.1595279E-1,0
STARLINK-37701,2026-119L,2026-06-06T12:00:02.000160,15.86371311,.0001091,97.2835,182.7352,95.4729,234.1798,0,U,69306,999,233,-.11010012E-1,-.2321551E-1,0
STARLINK-37732,2026-119M,2026-06-06T12:00:02.000160,15.86263839,.0000978,97.2837,182.7367,98.6596,233.7534,0,U,69307,999,233,-.10985112E-1,-.2306789E-1,0
STARLINK-37689,2026-119N,2026-06-06T12:00:02.000160,15.85875592,.00006238,97.2833,182.7375,87.8166,247.5213,0,U,69308,999,233,-.47400425E-2,-.1025945E-1,0
STARLINK-37619,2026-119P,2026-06-06T12:00:02.000160,15.86883794,.00008214,97.2836,182.7390,74.2375,264.2875,0,U,69309,999,233,-.87043317E-2,-.1940415E-1,0
STARLINK-37794,2026-119Q,2026-06-06T12:00:02.000160,15.88564270,.00009421,97.2837,182.7406,81.3464,260.8336,0,U,69310,999,233,-.71365528E-2,-.1719035E-1,0
STARLINK-37795,2026-119R,2026-06-06T12:00:02.000160,15.87512188,.00011256,97.2836,182.7414,83.3535,261.2958,0,U,69311,999,233,-.460135E-2,-.1073481E-1,0
STARLINK-37790,2026-119S,2026-06-06T12:00:02.000160,15.88066079,.00009889,97.2835,182.7427,78.4170,269.0908,0,U,69312,999,233,-.29617779E-2,-.737835E-2,0
STARLINK-37676,2026-119T,2026-06-06T12:00:02.000160,15.88835757,.00008349,97.2837,182.7444,88.4684,262.6995,0,U,69313,999,233,-.21602991E-2,-.569647E-2,0
STARLINK-37617,2026-119U,2026-06-06T12:00:02.000160,15.89027971,.00008887,97.2837,182.7450,88.8738,265.3899,0,U,69314,999,233,-.21428129E-2,-.570453E-2,0
STARLINK-37627,2026-119V,2026-06-06T12:00:02.000160,15.89261332,.00008632,97.2838,182.7466,81.6273,275.4220,0,U,69315,999,233,-.24264051E-2,-.648006E-2,0
