KUIPER-00602            
1 69286U 26118V   26157.58337963  .00006614  00000+0  18510-3 0  9998
2 69286  51.8696 104.5069 0003204 108.8187 184.1819 15.37882017  1303
KUIPER-00603            
1 69287U 26118W   26157.58337963  .00006794  00000+0  19319-3 0  9996
2 69287  51.8664 104.5443 0005645 123.6539 152.5807 15.37330717  2214
KUIPER-00605            
1 69288U 26118X   26157.58337963  .00004538  00000+0  13460-3 0  9992
2 69288  51.8653 104.5720 0007817 127.4427 135.4099 15.36848225  2054
KUIPER-00606            
1 69289U 26118Y   26157.58337963  .00006136  00000+0  17436-3 0  9996
2 69289  51.8689 104.5285 0004862 115.2807 167.4688 15.37539407  1906
KUIPER-00607            
1 69290U 26118Z   26157.58337963  .00006522  00000+0  18654-3 0  9990
2 69290  51.8673 104.5480 0006499 121.1287 152.8338 15.37217581  1865
KUIPER-00608            
1 69291U 26118AA  26157.58337963 -.00118477  00000+0 -33311-2 0  9992
2 69291  51.8592 104.6024 0009942 142.2603 106.1038 15.36299829  1833
KUIPER-00610            
1 69292U 26118AB  26157.58337963  .00009023  00000+0  24705-3 0  9995
2 69292  51.8716 104.4929 0003042 100.4769 196.6753 15.38081197  1756
KUIPER-00613            
1 69293U 26118AC  26157.58337963 -.00436567  00000+0 -13033-1 0  9995
2 69293  51.8618 104.6199 0010473 149.6557  89.9284 15.35777597  1302
KUIPER-00618            
1 69294U 26118AD  26157.58337963  .00009362  00000+0  25268-3 0  9998
2 69294  51.8717 104.4697 0002195  64.7153 243.2937 15.38480634  1301
KUIPER-00620            
1 69295U 26118AE  26157.58337963  .00009188  00000+0  25071-3 0  9997
2 69295  51.8712 104.4898 0003093  89.5076 210.0464 15.38164710  2297
STARLINK-37501          
1 69296U 26119A   26157.58337963 -.01437166  00000+0 -70743-2 0  9998
2 69296  97.2831 182.8101 0001416  67.7277 343.2323 15.85050601  2185
STARLINK-37496          
1 69297U 26119B   26157.58337963 -.02515852  00000+0 -13264-1 0  9993
2 69297  97.2833 182.8107 0001216  53.6711 359.5362 15.83873676  2185
STARLINK-37519          
1 69298U 26119C   26157.58337963 -.02495326  00000+0 -12124-1 0  9991
2 69298  97.2832 182.8150 0001239  74.7978 347.4277 15.85535140  2181
STARLINK-37455          
1 69299U 26119D   26157.58337963 -.00679726  00000+0 -32908-2 0  9991
2 69299  97.2829 182.8125 0001129  70.7563 346.1462 15.84073721  2187
STARLINK-37456          
1 69300U 26119E   26157.58337963 -.00667439  00000+0 -31596-2 0  9994
2 69300  97.2832 182.8157 0000939  86.9443 337.3600 15.84516898  2186
STARLINK-37630          
1 69301U 26119F   26157.58337963 -.02274430  00000+0 -11081-1 0  9998
2 69301  97.2833 182.8175 0001177  90.7788 337.5126 15.85738457  2349
STARLINK-37804          
1 69302U 26119G   26157.58337963 -.02293111  00000+0 -11414-1 0  9996
2 69302  97.2834 182.8186 0001357  63.3927   7.9471 15.85329648  2343
STARLINK-37730          
1 69303U 26119H   26157.58337963 -.01715380  00000+0 -79983-2 0  9999
2 69303  97.2834 182.8205 0001334  91.9269 343.3720 15.86211152  2342
STARLINK-37731          
1 69304U 26119J   26157.58337963 -.02450600  00000+0 -11702-1 0  9996
2 69304  97.2834 182.8216 0001602  76.4473   2.6502 15.85823786  2342
STARLINK-37734          
1 69305U 26119K   26157.58337963 -.01595279  00000+0 -74223-2 0  9996
2 69305  97.2837 182.8229 0001352  81.9834 359.5806 15.86035161  2348
STARLINK-37701          
1 69306U 26119L   26157.50002315 -.02321551  00000+0 -11010-1 0  9994
2 69306  97.2835 182.7352 0001091  95.4729 234.1798 15.86371311  2333
STARLINK-37732          
1 69307U 26119M   26157.50002315 -.02306789  00000+0 -10985-1 0  9991
2 69307  97.2837 182.7367 0000978  98.6596 233.7534 15.86263839  2330
STARLINK-37689          
1 69308U 26119N   26157.50002315 -.01025945  00000+0 -47400-2 0  9996
2 69308  97.2833 182.7375 0000623  87.8166 247.5213 15.85875592  2337
STARLINK-37619          
1 69309U 26119P   26157.50002315 -.01940415  00000+0 -87043-2 0  9992
2 69309  97.2836 182.7390 0000821  74.2375 264.2875 15.86883794  2334
STARLINK-37794          
1 69310U 26119Q   26157.50002315 -.01719035  00000+0 -71366-2 0  9997
2 69310  97.2837 182.7406 0000942  81.3464 260.8336 15.88564270  2338
STARLINK-37795          
1 69311U 26119R   26157.50002315 -.01073481  00000+0 -46013-2 0  9997
2 69311  97.2836 182.7414 0001125  83.3535 261.2958 15.87512188  2337
STARLINK-37790          
1 69312U 26119S   26157.50002315 -.00737835  00000+0 -29618-2 0  9999
2 69312  97.2835 182.7427 0000988  78.4170 269.0908 15.88066079  2332
STARLINK-37676          
1 69313U 26119T   26157.50002315 -.00569647  00000+0 -21603-2 0  9990
2 69313  97.2837 182.7444 0000834  88.4684 262.6995 15.88835757  2337
STARLINK-37617          
1 69314U 26119U   26157.50002315 -.00570453  00000+0 -21428-2 0  9993
2 69314  97.2837 182.7450 0000888  88.8738 265.3899 15.89027971  2333
STARLINK-37627          
1 69315U 26119V   26157.50002315 -.00648006  00000+0 -24264-2 0  9995
2 69315  97.2838 182.7466 0000863  81.6273 275.4220 15.89261332  2331
